IRIDIUM 36              
1 24967U 97056C   24255.61292033  .00001437  00000+0  47827-3 0  9994
2 24967  86.3923 290.0046 0002171  97.1242 263.0202 14.37022392412205
IRIDIUM 39              
1 25042U 97069D   24256.21155568  .00002656  00000+0  70394-3 0  9990
2 25042  86.3953 330.3143 0019380 149.2155 211.0189 14.48321586408976
IRIDIUM 38              
1 25043U 97069E   24255.80185744  .00001982  00000+0  65577-3 0  9992
2 25043  86.4020 350.2774 0000701  34.4095 325.7147 14.37509359405955
IRIDIUM 42              
1 25077U 97077A   24255.81845217  .00001917  00000+0  65654-3 0  9991
2 25077  86.4027 356.0915 0001601  78.6903 281.4473 14.35787942401240
IRIDIUM 44              
1 25078U 97077B   24256.17321866  .00001888  00000+0  59819-3 0  9994
2 25078  86.4006 338.6243 0001744 148.9826 211.1476 14.39634944403726
IRIDIUM 51              
1 25262U 98018A   24255.85183989  .00033641  00000+0  13819-2 0  9992
2 25262  86.3982 190.9929 0130121 220.7270 138.4189 15.16524278404522
