<?xml version="1.0" encoding="UTF-8"?>
<ndm xmlns:xsi="http://www.w3.org/2001/XMLSchema-instance" xsi:noNamespaceSchemaLocation="https://sanaregistry.org/r/ndmxml_unqualified/ndmxml-2.0.0-master-2.0.xsd">
<omm id="CCSDS_OMM_VERS" version="2.0">
<header><CREATION_DATE/><ORIGINATOR/></header><body><segment><metadata><OBJECT_NAME>IRIDIUM 36</OBJECT_NAME><OBJECT_ID>1997-056C</OBJECT_ID><CENTER_NAME>EARTH</CENTER_NAME><REF_FRAME>TEME</REF_FRAME><TIME_SYSTEM>UTC</TIME_SYSTEM><MEAN_ELEMENT_THEORY>SGP4</MEAN_ELEMENT_THEORY></metadata><data><meanElements><EPOCH>2024-09-11T14:42:36.316512</EPOCH><MEAN_MOTION>14.37022392</MEAN_MOTION><ECCENTRICITY>.0002171</ECCENTRICITY><INCLINATION>86.3923</INCLINATION><RA_OF_ASC_NODE>290.0046</RA_OF_ASC_NODE><ARG_OF_PERICENTER>97.1242</ARG_OF_PERICENTER><MEAN_ANOMALY>263.0202</MEAN_ANOMALY></meanElements><tleParameters><EPHEMERIS_TYPE>0</EPHEMERIS_TYPE><CLASSIFICATION_TYPE>U</CLASSIFICATION_TYPE><NORAD_CAT_ID>24967</NORAD_CAT_ID><ELEMENT_SET_NO>999</ELEMENT_SET_NO><REV_AT_EPOCH>41220</REV_AT_EPOCH><BSTAR>.47827E-3</BSTAR><MEAN_MOTION_DOT>.1437E-4</MEAN_MOTION_DOT><MEAN_MOTION_DDOT>0</MEAN_MOTION_DDOT></tleParameters></data></segment></body></omm>
<omm id="CCSDS_OMM_VERS" version="2.0">
<header><CREATION_DATE/><ORIGINATOR/></header><body><segment><metadata><OBJECT_NAME>IRIDIUM 39</OBJECT_NAME><OBJECT_ID>1997-069D</OBJECT_ID><CENTER_NAME>EARTH</CENTER_NAME><REF_FRAME>TEME</REF_FRAME><TIME_SYSTEM>UTC</TIME_SYSTEM><MEAN_ELEMENT_THEORY>SGP4</MEAN_ELEMENT_THEORY></metadata><data><meanElements><EPOCH>2024-09-12T05:04:38.410752</EPOCH><MEAN_MOTION>14.48321586</MEAN_MOTION><ECCENTRICITY>.001938</ECCENTRICITY><INCLINATION>86.3953</INCLINATION><RA_OF_ASC_NODE>330.3143</RA_OF_ASC_NODE><ARG_OF_PERICENTER>149.2155</ARG_OF_PERICENTER><MEAN_ANOMALY>211.0189</MEAN_ANOMALY></meanElements><tleParameters><EPHEMERIS_TYPE>0</EPHEMERIS_TYPE><CLASSIFICATION_TYPE>U</CLASSIFICATION_TYPE><NORAD_CAT_ID>25042</NORAD_CAT_ID><ELEMENT_SET_NO>999</ELEMENT_SET_NO><REV_AT_EPOCH>40897</REV_AT_EPOCH><BSTAR>.70394E-3</BSTAR><MEAN_MOTION_DOT>.2656E-4</MEAN_MOTION_DOT><MEAN_MOTION_DDOT>0</MEAN_MOTION_DDOT></tleParameters></data></segment></body></omm>
<omm id="CCSDS_OMM_VERS" version="2.0">
<header><CREATION_DATE/><ORIGINATOR/></header><body><segment><metadata><OBJECT_NAME>IRIDIUM 38</OBJECT_NAME><OBJECT_ID>1997-069E</OBJECT_ID><CENTER_NAME>EARTH</CENTER_NAME><REF_FRAME>TEME</REF_FRAME><TIME_SYSTEM>UTC</TIME_SYSTEM><MEAN_ELEMENT_THEORY>SGP4</MEAN_ELEMENT_THEORY></metadata><data><meanElements><EPOCH>2024-09-11T19:14:40.482816</EPOCH><MEAN_MOTION>14.37509359</MEAN_MOTION><ECCENTRICITY>.0000701</ECCENTRICITY><INCLINATION>86.4020</INCLINATION><RA_OF_ASC_NODE>350.2774</RA_OF_ASC_NODE><ARG_OF_PERICENTER>34.4095</ARG_OF_PERICENTER><MEAN_ANOMALY>325.7147</MEAN_ANOMALY></meanElements><tleParameters><EPHEMERIS_TYPE>0</EPHEMERIS_TYPE><CLASSIFICATION_TYPE>U</CLASSIFICATION_TYPE><NORAD_CAT_ID>25043</NORAD_CAT_ID><ELEMENT_SET_NO>999</ELEMENT_SET_NO><REV_AT_EPOCH>40595</REV_AT_EPOCH><BSTAR>.65577E-3</BSTAR><MEAN_MOTION_DOT>.1982E-4</MEAN_MOTION_DOT><MEAN_MOTION_DDOT>0</MEAN_MOTION_DDOT></tleParameters></data></segment></body></omm>
<omm id="CCSDS_OMM_VERS" version="2.0">
<header><CREATION_DATE/><ORIGINATOR/></header><body><segment><metadata><OBJECT_NAME>IRIDIUM 42</OBJECT_NAME><OBJECT_ID>1997-077A</OBJECT_ID><CENTER_NAME>EARTH</CENTER_NAME><REF_FRAME>TEME</REF_FRAME><TIME_SYSTEM>UTC</TIME_SYSTEM><MEAN_ELEMENT_THEORY>SGP4</MEAN_ELEMENT_THEORY></metadata><data><meanElements><EPOCH>2024-09-11T19:38:34.267488</EPOCH><MEAN_MOTION>14.35787942</MEAN_MOTION><ECCENTRICITY>.0001601</ECCENTRICITY><INCLINATION>86.4027</INCLINATION><RA_OF_ASC_NODE>356.0915</RA_OF_ASC_NODE><ARG_OF_PERICENTER>78.6903</ARG_OF_PERICENTER><MEAN_ANOMALY>281.4473</MEAN_ANOMALY></meanElements><tleParameters><EPHEMERIS_TYPE>0</EPHEMERIS_TYPE><CLASSIFICATION_TYPE>U</CLASSIFICATION_TYPE><NORAD_CAT_ID>25077</NORAD_CAT_ID><ELEMENT_SET_NO>999</ELEMENT_SET_NO><REV_AT_EPOCH>40124</REV_AT_EPOCH><BSTAR>.65654E-3</BSTAR><MEAN_MOTION_DOT>.1917E-4</MEAN_MOTION_DOT><MEAN_MOTION_DDOT>0</MEAN_MOTION_DDOT></tleParameters></data></segment></body></omm>
<omm id="CCSDS_OMM_VERS" version="2.0">
<header><CREATION_DATE/><ORIGINATOR/></header><body><segment><metadata><OBJECT_NAME>IRIDIUM 44</OBJECT_NAME><OBJECT_ID>1997-077B</OBJECT_ID><CENTER_NAME>EARTH</CENTER_NAME><REF_FRAME>TEME</REF_FRAME><TIME_SYSTEM>UTC</TIME_SYSTEM><MEAN_ELEMENT_THEORY>SGP4</MEAN_ELEMENT_THEORY></metadata><data><meanElements><EPOCH>2024-09-12T04:09:26.092224</EPOCH><MEAN_MOTION>14.39634944</MEAN_MOTION><ECCENTRICITY>.0001744</ECCENTRICITY><INCLINATION>86.4006</INCLINATION><RA_OF_ASC_NODE>338.6243</RA_OF_ASC_NODE><ARG_OF_PERICENTER>148.9826</ARG_OF_PERICENTER><MEAN_ANOMALY>211.1476</MEAN_ANOMALY></meanElements><tleParameters><EPHEMERIS_TYPE>0</EPHEMERIS_TYPE><CLASSIFICATION_TYPE>U</CLASSIFICATION_TYPE><NORAD_CAT_ID>25078</NORAD_CAT_ID><ELEMENT_SET_NO>999</ELEMENT_SET_NO><REV_AT_EPOCH>40372</REV_AT_EPOCH><BSTAR>.59819E-3</BSTAR><MEAN_MOTION_DOT>.1888E-4</MEAN_MOTION_DOT><MEAN_MOTION_DDOT>0</MEAN_MOTION_DDOT></tleParameters></data></segment></body></omm>
<omm id="CCSDS_OMM_VERS" version="2.0">
<header><CREATION_DATE/><ORIGINATOR/></header><body><segment><metadata><OBJECT_NAME>IRIDIUM 51</OBJECT_NAME><OBJECT_ID>1998-018A</OBJECT_ID><CENTER_NAME>EARTH</CENTER_NAME><REF_FRAME>TEME</REF_FRAME><TIME_SYSTEM>UTC</TIME_SYSTEM><MEAN_ELEMENT_THEORY>SGP4</MEAN_ELEMENT_THEORY></metadata><data><meanElements><EPOCH>2024-09-11T20:26:38.966496</EPOCH><MEAN_MOTION>15.16524278</MEAN_MOTION><ECCENTRICITY>.0130121</ECCENTRICITY><INCLINATION>86.3982</INCLINATION><RA_OF_ASC_NODE>190.9929</RA_OF_ASC_NODE><ARG_OF_PERICENTER>220.7270</ARG_OF_PERICENTER><MEAN_ANOMALY>138.4189</MEAN_ANOMALY></meanElements><tleParameters><EPHEMERIS_TYPE>0</EPHEMERIS_TYPE><CLASSIFICATION_TYPE>U</CLASSIFICATION_TYPE><NORAD_CAT_ID>25262</NORAD_CAT_ID><ELEMENT_SET_NO>999</ELEMENT_SET_NO><REV_AT_EPOCH>40452</REV_AT_EPOCH><BSTAR>.13819E-2</BSTAR><MEAN_MOTION_DOT>.33641E-3</MEAN_MOTION_DOT><MEAN_MOTION_DDOT>0</MEAN_MOTION_DDOT></tleParameters></data></segment></body></omm>

</ndm>
